CCSDS_OMM_VERS = 2.0
CREATION_DATE  = 
ORIGINATOR     = 

OBJECT_NAME    = ERS-1
OBJECT_ID      = 1991-050A
CENTER_NAME    = EARTH
REF_FRAME      = TEME
TIME_SYSTEM    = UTC
MEAN_ELEMENT_THEORY = SGP/SGP4

EPOCH          = 2026-03-21T22:20:58.895808
MEAN_MOTION    = 14.39458130
ECCENTRICITY   = .00323156
INCLINATION    = 98.7872
RA_OF_ASC_NODE = 99.4731
ARG_OF_PERICENTER = 164.1269
MEAN_ANOMALY   = 196.0939

EPHEMERIS_TYPE = 0
CLASSIFICATION_TYPE = U
NORAD_CAT_ID   = 21574
ELEMENT_SET_NO = 999
REV_AT_EPOCH   = 81749
BSTAR          = .10352287E-3
MEAN_MOTION_DOT = .278E-5
MEAN_MOTION_DDOT = 0

CCSDS_OMM_VERS = 2.0
CREATION_DATE  = 
ORIGINATOR     = 

OBJECT_NAME    = ARIANE 40 R/B
OBJECT_ID      = 1991-050F
CENTER_NAME    = EARTH
REF_FRAME      = TEME
TIME_SYSTEM    = UTC
MEAN_ELEMENT_THEORY = SGP/SGP4

EPOCH          = 2026-03-21T21:12:33.367392
MEAN_MOTION    = 14.42901839
ECCENTRICITY   = .00039419
INCLINATION    = 98.1987
RA_OF_ASC_NODE = 132.6611
ARG_OF_PERICENTER = 54.4931
MEAN_ANOMALY   = 305.6627

EPHEMERIS_TYPE = 0
CLASSIFICATION_TYPE = U
NORAD_CAT_ID   = 21610
ELEMENT_SET_NO = 999
REV_AT_EPOCH   = 82075
BSTAR          = .89125595E-4
MEAN_MOTION_DOT = .256E-5
MEAN_MOTION_DDOT = 0

CCSDS_OMM_VERS = 2.0
CREATION_DATE  = 
ORIGINATOR     = 

OBJECT_NAME    = INTERCOSMOS 25
OBJECT_ID      = 1991-086A
CENTER_NAME    = EARTH
REF_FRAME      = TEME
TIME_SYSTEM    = UTC
MEAN_ELEMENT_THEORY = SGP/SGP4

EPOCH          = 2026-03-21T21:00:02.228256
MEAN_MOTION    = 12.12041629
ECCENTRICITY   = .14867705
INCLINATION    = 82.6029
RA_OF_ASC_NODE = 302.6427
ARG_OF_PERICENTER = 90.6785
MEAN_ANOMALY   = 286.4245

EPHEMERIS_TYPE = 0
CLASSIFICATION_TYPE = U
NORAD_CAT_ID   = 21819
ELEMENT_SET_NO = 999
REV_AT_EPOCH   = 49816
BSTAR          = .31465678E-3
MEAN_MOTION_DOT = .1643E-4
MEAN_MOTION_DDOT = 0

CCSDS_OMM_VERS = 2.0
CREATION_DATE  = 
ORIGINATOR     = 

OBJECT_NAME    = SL-8 R/B
OBJECT_ID      = 1992-008B
CENTER_NAME    = EARTH
REF_FRAME      = TEME
TIME_SYSTEM    = UTC
MEAN_ELEMENT_THEORY = SGP/SGP4

EPOCH          = 2026-03-21T23:00:52.399584
MEAN_MOTION    = 13.75969565
ECCENTRICITY   = .00359107
INCLINATION    = 82.9223
RA_OF_ASC_NODE = 258.6486
ARG_OF_PERICENTER = 100.1688
MEAN_ANOMALY   = 63.3013

EPHEMERIS_TYPE = 0
CLASSIFICATION_TYPE = U
NORAD_CAT_ID   = 21876
ELEMENT_SET_NO = 999
REV_AT_EPOCH   = 71110
BSTAR          = -.15304773E-4
MEAN_MOTION_DOT = .1E-7
MEAN_MOTION_DDOT = 0

CCSDS_OMM_VERS = 2.0
CREATION_DATE  = 
ORIGINATOR     = 

OBJECT_NAME    = SL-8 R/B
OBJECT_ID      = 1992-020B
CENTER_NAME    = EARTH
REF_FRAME      = TEME
TIME_SYSTEM    = UTC
MEAN_ELEMENT_THEORY = SGP/SGP4

EPOCH          = 2026-03-21T22:26:26.599776
MEAN_MOTION    = 13.75550280
ECCENTRICITY   = .00275795
INCLINATION    = 82.9318
RA_OF_ASC_NODE = 144.6705
ARG_OF_PERICENTER = 262.9742
MEAN_ANOMALY   = 270.1032

EPHEMERIS_TYPE = 0
CLASSIFICATION_TYPE = U
NORAD_CAT_ID   = 21938
ELEMENT_SET_NO = 999
REV_AT_EPOCH   = 70281
BSTAR          = .32318333E-4
MEAN_MOTION_DOT = .46E-6
MEAN_MOTION_DDOT = 0

CCSDS_OMM_VERS = 2.0
CREATION_DATE  = 
ORIGINATOR     = 

OBJECT_NAME    = USA 81
OBJECT_ID      = 1992-023A
CENTER_NAME    = EARTH
REF_FRAME      = TEME
TIME_SYSTEM    = UTC
MEAN_ELEMENT_THEORY = SGP/SGP4

EPOCH          = 2026-03-21T19:32:12.382944
MEAN_MOTION    = 14.32371672
ECCENTRICITY   = .00020882
INCLINATION    = 85.0061
RA_OF_ASC_NODE = 124.4453
ARG_OF_PERICENTER = 69.6759
MEAN_ANOMALY   = 290.4658

EPHEMERIS_TYPE = 0
CLASSIFICATION_TYPE = U
NORAD_CAT_ID   = 21949
ELEMENT_SET_NO = 999
REV_AT_EPOCH   = 9652
BSTAR          = .4974825E-4
MEAN_MOTION_DOT = .154E-5
MEAN_MOTION_DDOT = 0

CCSDS_OMM_VERS = 2.0
CREATION_DATE  = 
ORIGINATOR     = 

OBJECT_NAME    = COSMOS 2219
OBJECT_ID      = 1992-076A
CENTER_NAME    = EARTH
REF_FRAME      = TEME
TIME_SYSTEM    = UTC
MEAN_ELEMENT_THEORY = SGP/SGP4

EPOCH          = 2026-03-21T21:36:12.897792
MEAN_MOTION    = 14.14092986
ECCENTRICITY   = .00182698
INCLINATION    = 71.0638
RA_OF_ASC_NODE = 352.5453
ARG_OF_PERICENTER = 189.6632
MEAN_ANOMALY   = 170.4142

EPHEMERIS_TYPE = 0
CLASSIFICATION_TYPE = U
NORAD_CAT_ID   = 22219
ELEMENT_SET_NO = 999
REV_AT_EPOCH   = 72010
BSTAR          = -.49482898E-4
MEAN_MOTION_DOT = -.141E-5
MEAN_MOTION_DDOT = 0

CCSDS_OMM_VERS = 2.0
CREATION_DATE  = 
ORIGINATOR     = 

OBJECT_NAME    = SL-16 R/B
OBJECT_ID      = 1992-076B
CENTER_NAME    = EARTH
REF_FRAME      = TEME
TIME_SYSTEM    = UTC
MEAN_ELEMENT_THEORY = SGP/SGP4

EPOCH          = 2026-03-22T00:04:08.000832
MEAN_MOTION    = 14.16862142
ECCENTRICITY   = .00106287
INCLINATION    = 71.0007
RA_OF_ASC_NODE = 162.4385
ARG_OF_PERICENTER = 73.4816
MEAN_ANOMALY   = 99.5525

EPHEMERIS_TYPE = 0
CLASSIFICATION_TYPE = U
NORAD_CAT_ID   = 22220
ELEMENT_SET_NO = 999
REV_AT_EPOCH   = 72357
BSTAR          = .15809216E-3
MEAN_MOTION_DOT = .269E-5
MEAN_MOTION_DDOT = 0

CCSDS_OMM_VERS = 2.0
CREATION_DATE  = 
ORIGINATOR     = 

OBJECT_NAME    = COSMOS 2221
OBJECT_ID      = 1992-080A
CENTER_NAME    = EARTH
REF_FRAME      = TEME
TIME_SYSTEM    = UTC
MEAN_ELEMENT_THEORY = SGP/SGP4

EPOCH          = 2026-03-21T21:01:09.831936
MEAN_MOTION    = 14.96247941
ECCENTRICITY   = .00150626
INCLINATION    = 82.5001
RA_OF_ASC_NODE = 267.4046
ARG_OF_PERICENTER = 147.0363
MEAN_ANOMALY   = 213.1801

EPHEMERIS_TYPE = 0
CLASSIFICATION_TYPE = U
NORAD_CAT_ID   = 22236
ELEMENT_SET_NO = 999
REV_AT_EPOCH   = 78261
BSTAR          = .17485243E-3
MEAN_MOTION_DOT = .2003E-4
MEAN_MOTION_DDOT = 0

CCSDS_OMM_VERS = 2.0
CREATION_DATE  = 
ORIGINATOR     = 

OBJECT_NAME    = SL-16 R/B
OBJECT_ID      = 1992-093B
CENTER_NAME    = EARTH
REF_FRAME      = TEME
TIME_SYSTEM    = UTC
MEAN_ELEMENT_THEORY = SGP/SGP4

EPOCH          = 2026-03-21T21:28:28.271424
MEAN_MOTION    = 14.15449890
ECCENTRICITY   = .00063142
INCLINATION    = 71.0237
RA_OF_ASC_NODE = 338.6464
ARG_OF_PERICENTER = 281.4520
MEAN_ANOMALY   = 78.5893

EPHEMERIS_TYPE = 0
CLASSIFICATION_TYPE = U
NORAD_CAT_ID   = 22285
ELEMENT_SET_NO = 999
REV_AT_EPOCH   = 71488
BSTAR          = .1899746E-3
MEAN_MOTION_DOT = .323E-5
MEAN_MOTION_DDOT = 0

CCSDS_OMM_VERS = 2.0
CREATION_DATE  = 
ORIGINATOR     = 

OBJECT_NAME    = COSMOS 2228
OBJECT_ID      = 1992-094A
CENTER_NAME    = EARTH
REF_FRAME      = TEME
TIME_SYSTEM    = UTC
MEAN_ELEMENT_THEORY = SGP/SGP4

EPOCH          = 2026-03-21T21:13:01.456032
MEAN_MOTION    = 14.97249714
ECCENTRICITY   = .00165952
INCLINATION    = 82.5178
RA_OF_ASC_NODE = 225.6335
ARG_OF_PERICENTER = 260.1072
MEAN_ANOMALY   = 99.8277

EPHEMERIS_TYPE = 0
CLASSIFICATION_TYPE = U
NORAD_CAT_ID   = 22286
ELEMENT_SET_NO = 999
REV_AT_EPOCH   = 77788
BSTAR          = .24792349E-3
MEAN_MOTION_DOT = .2903E-4
MEAN_MOTION_DDOT = 0

CCSDS_OMM_VERS = 2.0
CREATION_DATE  = 
ORIGINATOR     = 

OBJECT_NAME    = SL-16 R/B
OBJECT_ID      = 1993-016B
CENTER_NAME    = EARTH
REF_FRAME      = TEME
TIME_SYSTEM    = UTC
MEAN_ELEMENT_THEORY = SGP/SGP4

EPOCH          = 2026-03-21T17:23:03.817536
MEAN_MOTION    = 14.15306825
ECCENTRICITY   = .00123517
INCLINATION    = 71.0080
RA_OF_ASC_NODE = 189.9063
ARG_OF_PERICENTER = 298.4496
MEAN_ANOMALY   = 61.5381

EPHEMERIS_TYPE = 0
CLASSIFICATION_TYPE = U
NORAD_CAT_ID   = 22566
ELEMENT_SET_NO = 999
REV_AT_EPOCH   = 70387
BSTAR          = -.97245959E-4
MEAN_MOTION_DOT = -.237E-5
MEAN_MOTION_DDOT = 0

